[
    {
        "Altitude(m)": 605470.79791252,
        "Argument of Periapsis(deg)": 0.0,
        "Eccentricity": 0.0,
        "Inclination(deg)": 60.0,
        "Latitude(deg)": 27.988231844292876,
        "Longitude(deg)": 112.26295614724715,
        "Mean Anomaly(deg)": 147.2727,
        "RAAN(deg)": 50.0,
        "Satellite Name": "Test1 229",
        "Satellite Number": 229,
        "Semi-Major Axis(m)": 6980739.136638005,
        "Time(s)": 0
    },
    {
        "Altitude(m)": 605395.8356659776,
        "Argument of Periapsis(deg)": 0.00010418945913296404,
        "Eccentricity": 0.0,
        "Inclination(deg)": 60.0,
        "Latitude(deg)": 27.473922436100835,
        "Longitude(deg)": 112.61614381076842,
        "Mean Anomaly(deg)": 147.8928061454618,
        "RAAN(deg)": 49.99957995086026,
        "Satellite Name": "Test1 229",
        "Satellite Number": 229,
        "Semi-Major Axis(m)": 6980739.136638005,
        "Time(s)": 10
    },
    {
        "Altitude(m)": 605322.6760763864,
        "Argument of Periapsis(deg)": 0.0002083789182659281,
        "Eccentricity": 0.0,
        "Inclination(deg)": 60.0,
        "Latitude(deg)": 26.958467232531248,
        "Longitude(deg)": 112.96568326305332,
        "Mean Anomaly(deg)": 148.51291229092362,
        "RAAN(deg)": 49.99915990172052,
        "Satellite Name": "Test1 229",
        "Satellite Number": 229,
        "Semi-Major Axis(m)": 6980739.136638005,
        "Time(s)": 20
    },
    {
        "Altitude(m)": 605251.3748183218,
        "Argument of Periapsis(deg)": 0.00031256837739889213,
        "Eccentricity": 0.0,
        "Inclination(deg)": 60.0,
        "Latitude(deg)": 26.44190073597309,
        "Longitude(deg)": 113.3116791540963,
        "Mean Anomaly(deg)": 149.13301843638547,
        "RAAN(deg)": 49.998739852580776,
        "Satellite Name": "Test1 229",
        "Satellite Number": 229,
        "Semi-Major Axis(m)": 6980739.136638005,
        "Time(s)": 30
    },
    {
        "Altitude(m)": 605181.9868384252,
        "Argument of Periapsis(deg)": 0.0004167578365318562,
        "Eccentricity": 0.0,
        "Inclination(deg)": 60.0,
        "Latitude(deg)": 25.92425659451882,
        "Longitude(deg)": 113.65423440140185,
        "Mean Anomaly(deg)": 149.75312458184732,
        "RAAN(deg)": 49.99831980344103,
        "Satellite Name": "Test1 229",
        "Satellite Number": 229,
        "Semi-Major Axis(m)": 6980739.136638005,
        "Time(s)": 40
    },
    {
        "Altitude(m)": 605114.5663264563,
        "Argument of Periapsis(deg)": 0.0005209472956648203,
        "Eccentricity": 0.0,
        "Inclination(deg)": 60.0,
        "Latitude(deg)": 25.405567634519144,
        "Longitude(deg)": 113.99344924610718,
        "Mean Anomaly(deg)": 150.37323072730916,
        "RAAN(deg)": 49.99789975430129,
        "Satellite Name": "Test1 229",
        "Satellite Number": 229,
        "Semi-Major Axis(m)": 6980739.136638005,
        "Time(s)": 50
    },
    {
        "Altitude(m)": 605049.1666866716,
        "Argument of Periapsis(deg)": 0.0006251367547977843,
        "Eccentricity": 0.0,
        "Inclination(deg)": 60.0,
        "Latitude(deg)": 24.885865892020327,
        "Longitude(deg)": 114.3294218211803,
        "Mean Anomaly(deg)": 150.99333687277098,
        "RAAN(deg)": 49.997479705161545,
        "Satellite Name": "Test1 229",
        "Satellite Number": 229,
        "Semi-Major Axis(m)": 6980739.136638005,
        "Time(s)": 60
    },
    {
        "Altitude(m)": 604985.8405095342,
        "Argument of Periapsis(deg)": 0.0007293262139307483,
        "Eccentricity": 0.0,
        "Inclination(deg)": 60.0,
        "Latitude(deg)": 24.365182643124786,
        "Longitude(deg)": 114.66224871876122,
        "Mean Anomaly(deg)": 151.6134430182328,
        "RAAN(deg)": 49.997059656021804,
        "Satellite Name": "Test1 229",
        "Satellite Number": 229,
        "Semi-Major Axis(m)": 6980739.136638005,
        "Time(s)": 70
    },
    {
        "Altitude(m)": 604924.6395438231,
        "Argument of Periapsis(deg)": 0.0008335156730637124,
        "Eccentricity": 0.0,
        "Inclination(deg)": 60.0,
        "Latitude(deg)": 23.84354843331273,
        "Longitude(deg)": 114.99202404372348,
        "Mean Anomaly(deg)": 152.23354916369462,
        "RAAN(deg)": 49.996639606882056,
        "Satellite Name": "Test1 229",
        "Satellite Number": 229,
        "Semi-Major Axis(m)": 6980739.136638005,
        "Time(s)": 80
    },
    {
        "Altitude(m)": 604865.6146690547,
        "Argument of Periapsis(deg)": 0.0009377051321966765,
        "Eccentricity": 0.0,
        "Inclination(deg)": 60.0,
        "Latitude(deg)": 23.320993105762213,
        "Longitude(deg)": 115.31883997916458,
        "Mean Anomaly(deg)": 152.85365530915647,
        "RAAN(deg)": 49.996219557742315,
        "Satellite Name": "Test1 229",
        "Satellite Number": 229,
        "Semi-Major Axis(m)": 6980739.136638005,
        "Time(s)": 90
    },
    {
        "Altitude(m)": 604808.8158683347,
        "Argument of Periapsis(deg)": 0.0010418945913296407,
        "Eccentricity": 0.0,
        "Inclination(deg)": 60.0,
        "Latitude(deg)": 22.797545828703406,
        "Longitude(deg)": 115.64278735092158,
        "Mean Anomaly(deg)": 153.47376145461828,
        "RAAN(deg)": 49.99579950860257,
        "Satellite Name": "Test1 229",
        "Satellite Number": 229,
        "Semi-Major Axis(m)": 6980739.136638005,
        "Time(s)": 100
    },
    {
        "Altitude(m)": 604754.2922015811,
        "Argument of Periapsis(deg)": 0.0011460840504626045,
        "Eccentricity": 0.0,
        "Inclination(deg)": 60.0,
        "Latitude(deg)": 22.27323512184526,
        "Longitude(deg)": 115.96395467821051,
        "Mean Anomaly(deg)": 154.09386760008013,
        "RAAN(deg)": 49.99537945946283,
        "Satellite Name": "Test1 229",
        "Satellite Number": 229,
        "Semi-Major Axis(m)": 6980739.136638005,
        "Time(s)": 110
    },
    {
        "Altitude(m)": 604702.0917791914,
        "Argument of Periapsis(deg)": 0.0012502735095955685,
        "Eccentricity": 0.0,
        "Inclination(deg)": 60.0,
        "Latitude(deg)": 21.74808888190719,
        "Longitude(deg)": 116.2824287361237,
        "Mean Anomaly(deg)": 154.71397374554195,
        "RAAN(deg)": 49.99495941032309,
        "Satellite Name": "Test1 229",
        "Satellite Number": 229,
        "Semi-Major Axis(m)": 6980739.136638005,
        "Time(s)": 120
    },
    {
        "Altitude(m)": 604652.2617361121,
        "Argument of Periapsis(deg)": 0.0013544629687285324,
        "Eccentricity": 0.0,
        "Inclination(deg)": 60.0,
        "Latitude(deg)": 21.22213440729046,
        "Longitude(deg)": 116.59829511709704,
        "Mean Anomaly(deg)": 155.33407989100377,
        "RAAN(deg)": 49.99453936118335,
        "Satellite Name": "Test1 229",
        "Satellite Number": 229,
        "Semi-Major Axis(m)": 6980739.136638005,
        "Time(s)": 130
    },
    {
        "Altitude(m)": 604604.8482063635,
        "Argument of Periapsis(deg)": 0.0014586524278614966,
        "Eccentricity": 0.0,
        "Inclination(deg)": 60.0,
        "Latitude(deg)": 20.69539842192502,
        "Longitude(deg)": 116.91163727846687,
        "Mean Anomaly(deg)": 155.95418603646564,
        "RAAN(deg)": 49.99411931204361,
        "Satellite Name": "Test1 229",
        "Satellite Number": 229,
        "Semi-Major Axis(m)": 6980739.136638005,
        "Time(s)": 140
    },
    {
        "Altitude(m)": 604559.8962980207,
        "Argument of Periapsis(deg)": 0.0015628418869944607,
        "Eccentricity": 0.0,
        "Inclination(deg)": 60.0,
        "Latitude(deg)": 20.167907098320544,
        "Longitude(deg)": 117.22253710186429,
        "Mean Anomaly(deg)": 156.57429218192746,
        "RAAN(deg)": 49.99369926290386,
        "Satellite Name": "Test1 229",
        "Satellite Number": 229,
        "Semi-Major Axis(m)": 6980739.136638005,
        "Time(s)": 150
    },
    {
        "Altitude(m)": 604517.4500686568,
        "Argument of Periapsis(deg)": 0.0016670313461274247,
        "Eccentricity": 0.0,
        "Inclination(deg)": 60.0,
        "Latitude(deg)": 19.63968607985543,
        "Longitude(deg)": 117.5310754515737,
        "Mean Anomaly(deg)": 157.19439832738928,
        "RAAN(deg)": 49.99327921376412,
        "Satellite Name": "Test1 229",
        "Satellite Number": 229,
        "Semi-Major Axis(m)": 6980739.136638005,
        "Time(s)": 160
    },
    {
        "Altitude(m)": 604477.5525012949,
        "Argument of Periapsis(deg)": 0.0017712208052603888,
        "Eccentricity": 0.0,
        "Inclination(deg)": 60.0,
        "Latitude(deg)": 19.11076050233534,
        "Longitude(deg)": 117.83733121898791,
        "Mean Anomaly(deg)": 157.8145044728511,
        "RAAN(deg)": 49.99285916462438,
        "Satellite Name": "Test1 229",
        "Satellite Number": 229,
        "Semi-Major Axis(m)": 6980739.136638005,
        "Time(s)": 170
    },
    {
        "Altitude(m)": 604440.2454808081,
        "Argument of Periapsis(deg)": 0.001875410264393353,
        "Eccentricity": 0.0,
        "Inclination(deg)": 60.0,
        "Latitude(deg)": 18.58115501484879,
        "Longitude(deg)": 118.14138187891818,
        "Mean Anomaly(deg)": 158.43461061831295,
        "RAAN(deg)": 49.992439115484636,
        "Satellite Name": "Test1 229",
        "Satellite Number": 229,
        "Semi-Major Axis(m)": 6980739.136638005,
        "Time(s)": 180
    },
    {
        "Altitude(m)": 604405.5697708924,
        "Argument of Periapsis(deg)": 0.0019795997235263173,
        "Eccentricity": 0.0,
        "Inclination(deg)": 60.0,
        "Latitude(deg)": 18.050893799950103,
        "Longitude(deg)": 118.44330404489719,
        "Mean Anomaly(deg)": 159.05471676377476,
        "RAAN(deg)": 49.992019066344895,
        "Satellite Name": "Test1 229",
        "Satellite Number": 229,
        "Semi-Major Axis(m)": 6980739.136638005,
        "Time(s)": 190
    }
]